GSAT0218 (GALILEO 22)   
1 43058U 17079D   26064.92262595  .00000018  00000+0  00000+0 0  9999
2 43058  55.1041 224.3407 0001921 303.2220  56.6985  1.70474575 51257
GOES 17                 
1 43226U 18022A   26066.35183693 -.00000184  00000+0  00000+0 0  9990
2 43226   0.6754  87.4909 0002082 226.7834 247.9185  1.00270088 29409
GSAT0221 (GALILEO 25)   
1 43564U 18060A   26065.99917537 -.00000103  00000+0  00000+0 0  9999
2 43564  57.2026 344.5430 0005694 308.1098  51.8621  1.70475614 47427
GSAT0222 (GALILEO 26)   
1 43565U 18060B   26065.04549094 -.00000105  00000+0  00000+0 0  9997
2 43565  57.2060 344.5721 0004084 287.9587  72.0183  1.70475258 47453
GSAT0219 (GALILEO 23)   
1 43566U 18060C   26065.26653775 -.00000104  00000+0  00000+0 0  9993
2 43566  57.2056 344.5677 0004933 321.2111  38.7755  1.70475265 47437
GSAT0220 (GALILEO 24)   
1 43567U 18060D   26058.44840234 -.00000102  00000+0  00000+0 0  9992
2 43567  57.2075 344.7516 0005301 308.5821  51.3768  1.70475159 47302
BEIDOU-3 M13            
1 43622U 18072A   26063.82956810 -.00000029  00000+0  00000+0 0  9991
2 43622  56.5333  66.1018 0008916 307.8246  52.1164  1.86230808 50718
BEIDOU-3 M14            
1 43623U 18072B   26063.69502611 -.00000028  00000+0  00000+0 0  9992
2 43623  56.5350  66.1003 0006376 328.8150  31.1695  1.86230841 50709
NAVSTAR 77 (USA 289)    
1 43873U 18109A   26065.54477595 -.00000004  00000+0  00000+0 0  9992
2 43873  55.6164  96.2348 0037951 198.3878 333.9441  2.00556975 53010
METEOR-M2 2             
1 44387U 19038A   26066.59738508 -.00000105  00000+0 -25401-4 0  9995
2 44387  98.9087  52.4198 0001021   8.3814 351.7381 14.24331878346839
NAVSTAR 78 (USA 293)    
1 44506U 19056A   26065.18297285 -.00000100  00000+0  00000+0 0  9991
2 44506  55.6839 335.2387 0058046 198.0933 333.3685  2.00568454 48001
BEIDOU-3 M24            
1 44542U 19061A   26065.14698275  .00000012  00000+0  00000+0 0  9998
2 44542  54.3990 186.2022 0008590  20.7979 339.2100  1.86228900 43874
BEIDOU-3 M23            
1 44543U 19061B   26066.34628199  .00000017  00000+0  00000+0 0  9995
2 44543  54.3975 186.1302 0005055  13.3914 342.9182  1.86227456 43896
BEIDOU-3 M22            
1 44793U 19078A   26066.06018572 -.00000065  00000+0  00000+0 0  9991
2 44793  54.0280 303.4217 0007398  37.4223 322.6804  1.86232046 42740
BEIDOU-3 M21            
1 44794U 19078B   26066.19978304 -.00000065  00000+0  00000+0 0  9994
2 44794  54.0014 303.3801 0005318  31.7457 328.3372  1.86227693 42756
ELEKTRO-L 3             
1 44903U 19095A   26066.02941773 -.00000098  00000+0  00000+0 0  9993
2 44903   0.0459 324.0783 0001603  14.1329 273.0594  1.00270545 22689
NAVSTAR 79 (USA 304)    
1 45854U 20041A   26065.51925653 -.00000081  00000+0  00000+0 0  9996
2 45854  56.6073  32.9268 0061430 205.2409 151.1260  2.00560728 41978
